[{"OBJECT_NAME":"ONEWEB-0673","OBJECT_ID":"2023-029AN","EPOCH":"2026-05-07T06:01:39.711648","MEAN_MOTION":13.19722951,"ECCENTRICITY":0.000195,"INCLINATION":87.9158,"RA_OF_ASC_NODE":313.128,"ARG_OF_PERICENTER":88.0057,"MEAN_ANOMALY":272.1299,"EPHEMERIS_TYPE":0,"CLASSIFICATION_TYPE":"U","NORAD_CAT_ID":55832,"ELEMENT_SET_NO":999,"REV_AT_EPOCH":15350,"BSTAR":-0.00018509,"MEAN_MOTION_DOT":-6.1e-07,"MEAN_MOTION_DDOT":0.0},{"OBJECT_NAME":"ONEWEB-0674","OBJECT_ID":"2023-029AP","EPOCH":"2026-05-07T05:30:03.333600","MEAN_MOTION":13.14501497,"ECCENTRICITY":0.0002225,"INCLINATION":87.8914,"RA_OF_ASC_NODE":297.8948,"ARG_OF_PERICENTER":91.6347,"MEAN_ANOMALY":268.5038,"EPHEMERIS_TYPE":0,"CLASSIFICATION_TYPE":"U","NORAD_CAT_ID":55833,"ELEMENT_SET_NO":999,"REV_AT_EPOCH":15403,"BSTAR":0.0007887699999999999,"MEAN_MOTION_DOT":3.05e-06,"MEAN_MOTION_DDOT":0.0},{"OBJECT_NAME":"ONEWEB-0675","OBJECT_ID":"2023-029AQ","EPOCH":"2026-05-07T06:23:17.637504","MEAN_MOTION":13.19724408,"ECCENTRICITY":0.0001511,"INCLINATION":87.9146,"RA_OF_ASC_NODE":313.1385,"ARG_OF_PERICENTER":93.8266,"MEAN_ANOMALY":266.304,"EPHEMERIS_TYPE":0,"CLASSIFICATION_TYPE":"U","NORAD_CAT_ID":55834,"ELEMENT_SET_NO":999,"REV_AT_EPOCH":15352,"BSTAR":-6.0897e-05,"MEAN_MOTION_DOT":-1.1e-07,"MEAN_MOTION_DDOT":0.0},{"OBJECT_NAME":"ONEWEB-0720","OBJECT_ID":"2023-029AR","EPOCH":"2026-05-07T06:11:54.818304","MEAN_MOTION":13.19724581,"ECCENTRICITY":0.0001822,"INCLINATION":87.9145,"RA_OF_ASC_NODE":313.1407,"ARG_OF_PERICENTER":79.1423,"MEAN_ANOMALY":280.9915,"EPHEMERIS_TYPE":0,"CLASSIFICATION_TYPE":"U","NORAD_CAT_ID":55835,"ELEMENT_SET_NO":999,"REV_AT_EPOCH":15344,"BSTAR":-8.5554e-05,"MEAN_MOTION_DOT":-2.1e-07,"MEAN_MOTION_DDOT":0.0},{"OBJECT_NAME":"ONEWEB-0537","OBJECT_ID":"2023-043A","EPOCH":"2026-05-07T05:34:25.481568","MEAN_MOTION":13.16595571,"ECCENTRICITY":0.0001882,"INCLINATION":87.9095,"RA_OF_ASC_NODE":236.9035,"ARG_OF_PERICENTER":108.5229,"MEAN_ANOMALY":251.6106,"EPHEMERIS_TYPE":0,"CLASSIFICATION_TYPE":"U","NORAD_CAT_ID":56046,"ELEMENT_SET_NO":999,"REV_AT_EPOCH":15357,"BSTAR":0.00010253,"MEAN_MOTION_DOT":5.2e-07,"MEAN_MOTION_DDOT":0.0},{"OBJECT_NAME":"ONEWEB-0538","OBJECT_ID":"2023-043B","EPOCH":"2026-05-07T05:25:18.669792","MEAN_MOTION":13.16595216,"ECCENTRICITY":0.0001677,"INCLINATION":87.9097,"RA_OF_ASC_NODE":236.9069,"ARG_OF_PERICENTER":102.2128,"MEAN_ANOMALY":257.9191,"EPHEMERIS_TYPE":0,"CLASSIFICATION_TYPE":"U","NORAD_CAT_ID":56047,"ELEMENT_SET_NO":999,"REV_AT_EPOCH":15358,"BSTAR":0.00023142,"MEAN_MOTION_DOT":1.01e-06,"MEAN_MOTION_DDOT":0.0},{"OBJECT_NAME":"ONEWEB-0546","OBJECT_ID":"2023-043C","EPOCH":"2026-05-07T06:56:30.295392","MEAN_MOTION":13.16594766,"ECCENTRICITY":0.0001953,"INCLINATION":87.9097,"RA_OF_ASC_NODE":236.894,"ARG_OF_PERICENTER":122.4069,"MEAN_ANOMALY":237.7251,"EPHEMERIS_TYPE":0,"CLASSIFICATION_TYPE":"U","NORAD_CAT_ID":56048,"ELEMENT_SET_NO":999,"REV_AT_EPOCH":15358,"BSTAR":0.00023195,"MEAN_MOTION_DOT":1.02e-06,"MEAN_MOTION_DDOT":0.0},{"OBJECT_NAME":"ONEWEB-0547","OBJECT_ID":"2023-043D","EPOCH":"2026-05-07T07:06:45.751968","MEAN_MOTION":13.21826931,"ECCENTRICITY":0.0001786,"INCLINATION":87.9242,"RA_OF_ASC_NODE":252.1117,"ARG_OF_PERICENTER":95.7529,"MEAN_ANOMALY":264.3809,"EPHEMERIS_TYPE":0,"CLASSIFICATION_TYPE":"U","NORAD_CAT_ID":56049,"ELEMENT_SET_NO":999,"REV_AT_EPOCH":15282,"BSTAR":0.0002992,"MEAN_MOTION_DOT":1.37e-06,"MEAN_MOTION_DDOT":0.0},{"OBJECT_NAME":"ONEWEB-0548","OBJECT_ID":"2023-043E","EPOCH":"2026-05-07T05:42:23.721984","MEAN_MOTION":13.16593675,"ECCENTRICITY":0.0002426,"INCLINATION":87.9096,"RA_OF_ASC_NODE":236.9013,"ARG_OF_PERICENTER":102.55,"MEAN_ANOMALY":257.5902,"EPHEMERIS_TYPE":0,"CLASSIFICATION_TYPE":"U","NORAD_CAT_ID":56050,"ELEMENT_SET_NO":999,"REV_AT_EPOCH":15357,"BSTAR":4.9455e-05,"MEAN_MOTION_DOT":3.2e-07,"MEAN_MOTION_DDOT":0.0},{"OBJECT_NAME":"ONEWEB-0549","OBJECT_ID":"2023-043F","EPOCH":"2026-05-07T06:58:16.810176","MEAN_MOTION":13.21826185,"ECCENTRICITY":0.0001765,"INCLINATION":87.9238,"RA_OF_ASC_NODE":252.1218,"ARG_OF_PERICENTER":97.4429,"MEAN_ANOMALY":262.6906,"EPHEMERIS_TYPE":0,"CLASSIFICATION_TYPE":"U","NORAD_CAT_ID":56051,"ELEMENT_SET_NO":999,"REV_AT_EPOCH":15282,"BSTAR":-0.00064368,"MEAN_MOTION_DOT":-2.53e-06,"MEAN_MOTION_DDOT":0.0},{"OBJECT_NAME":"ONEWEB-0550","OBJECT_ID":"2023-043G","EPOCH":"2026-05-07T06:38:54.423456","MEAN_MOTION":13.21828558,"ECCENTRICITY":0.0002193,"INCLINATION":87.9237,"RA_OF_ASC_NODE":252.1202,"ARG_OF_PERICENTER":100.3862,"MEAN_ANOMALY":259.7519,"EPHEMERIS_TYPE":0,"CLASSIFICATION_TYPE":"U","NORAD_CAT_ID":56052,"ELEMENT_SET_NO":999,"REV_AT_EPOCH":15282,"BSTAR":0.00038735,"MEAN_MOTION_DOT":1.73e-06,"MEAN_MOTION_DDOT":0.0},{"OBJECT_NAME":"ONEWEB-0551","OBJECT_ID":"2023-043H","EPOCH":"2026-05-07T02:01:22.103040","MEAN_MOTION":13.15549572,"ECCENTRICITY":0.0001564,"INCLINATION":87.8966,"RA_OF_ASC_NODE":267.4214,"ARG_OF_PERICENTER":92.3609,"MEAN_ANOMALY":267.77,"EPHEMERIS_TYPE":0,"CLASSIFICATION_TYPE":"U","NORAD_CAT_ID":56053,"ELEMENT_SET_NO":999,"REV_AT_EPOCH":15099,"BSTAR":0.00045096000000000003,"MEAN_MOTION_DOT":1.83e-06,"MEAN_MOTION_DDOT":0.0},{"OBJECT_NAME":"ONEWEB-0552","OBJECT_ID":"2023-043J","EPOCH":"2026-05-07T06:31:38.328096","MEAN_MOTION":13.21828011,"ECCENTRICITY":0.0001941,"INCLINATION":87.9231,"RA_OF_ASC_NODE":252.1282,"ARG_OF_PERICENTER":94.418,"MEAN_ANOMALY":265.7175,"EPHEMERIS_TYPE":0,"CLASSIFICATION_TYPE":"U","NORAD_CAT_ID":56054,"ELEMENT_SET_NO":999,"REV_AT_EPOCH":15282,"BSTAR":1.4005000000000002e-05,"MEAN_MOTION_DOT":1.9e-07,"MEAN_MOTION_DDOT":0.0},{"OBJECT_NAME":"ONEWEB-0553","OBJECT_ID":"2023-043K","EPOCH":"2026-05-07T07:05:37.250592","MEAN_MOTION":13.16595302,"ECCENTRICITY":0.000209,"INCLINATION":87.9098,"RA_OF_ASC_NODE":236.8939,"ARG_OF_PERICENTER":113.592,"MEAN_ANOMALY":246.543,"EPHEMERIS_TYPE":0,"CLASSIFICATION_TYPE":"U","NORAD_CAT_ID":56055,"ELEMENT_SET_NO":999,"REV_AT_EPOCH":15359,"BSTAR":0.00025346,"MEAN_MOTION_DOT":1.1e-06,"MEAN_MOTION_DDOT":0.0},{"OBJECT_NAME":"ONEWEB-0554","OBJECT_ID":"2023-043L","EPOCH":"2026-05-07T06:47:23.379936","MEAN_MOTION":13.16595233,"ECCENTRICITY":0.0002274,"INCLINATION":87.9093,"RA_OF_ASC_NODE":236.9058,"ARG_OF_PERICENTER":103.6794,"MEAN_ANOMALY":256.459,"EPHEMERIS_TYPE":0,"CLASSIFICATION_TYPE":"U","NORAD_CAT_ID":56056,"ELEMENT_SET_NO":999,"REV_AT_EPOCH":15357,"BSTAR":0.00029338,"MEAN_MOTION_DOT":1.25e-06,"MEAN_MOTION_DDOT":0.0},{"OBJECT_NAME":"ONEWEB-0555","OBJECT_ID":"2023-043M","EPOCH":"2026-05-07T05:52:39.862848","MEAN_MOTION":13.16593987,"ECCENTRICITY":0.0002058,"INCLINATION":87.91,"RA_OF_ASC_NODE":236.8996,"ARG_OF_PERICENTER":119.456,"MEAN_ANOMALY":240.6776,"EPHEMERIS_TYPE":0,"CLASSIFICATION_TYPE":"U","NORAD_CAT_ID":56057,"ELEMENT_SET_NO":999,"REV_AT_EPOCH":15357,"BSTAR":-7.544100000000001e-05,"MEAN_MOTION_DOT":-1.6e-07,"MEAN_MOTION_DDOT":0.0},{"OBJECT_NAME":"ONEWEB-0557","OBJECT_ID":"2023-043N","EPOCH":"2026-05-07T06:13:11.203680","MEAN_MOTION":13.16595386,"ECCENTRICITY":0.0003094,"INCLINATION":87.9096,"RA_OF_ASC_NODE":236.9079,"ARG_OF_PERICENTER":115.8548,"MEAN_ANOMALY":244.2902,"EPHEMERIS_TYPE":0,"CLASSIFICATION_TYPE":"U","NORAD_CAT_ID":56058,"ELEMENT_SET_NO":999,"REV_AT_EPOCH":15357,"BSTAR":5.2154e-05,"MEAN_MOTION_DOT":3.3e-07,"MEAN_MOTION_DDOT":0.0},{"OBJECT_NAME":"ONEWEB-0558","OBJECT_ID":"2023-043P","EPOCH":"2026-05-07T06:21:56.805120","MEAN_MOTION":13.21824856,"ECCENTRICITY":0.0001622,"INCLINATION":87.9234,"RA_OF_ASC_NODE":252.1233,"ARG_OF_PERICENTER":90.8545,"MEAN_ANOMALY":269.2775,"EPHEMERIS_TYPE":0,"CLASSIFICATION_TYPE":"U","NORAD_CAT_ID":56059,"ELEMENT_SET_NO":999,"REV_AT_EPOCH":15283,"BSTAR":-4.2007e-06,"MEAN_MOTION_DOT":1.1e-07,"MEAN_MOTION_DDOT":0.0},{"OBJECT_NAME":"ONEWEB-0559","OBJECT_ID":"2023-043Q","EPOCH":"2026-05-07T02:26:59.123616","MEAN_MOTION":13.21824687,"ECCENTRICITY":0.0001783,"INCLINATION":87.9236,"RA_OF_ASC_NODE":252.1498,"ARG_OF_PERICENTER":94.4807,"MEAN_ANOMALY":265.6531,"EPHEMERIS_TYPE":0,"CLASSIFICATION_TYPE":"U","NORAD_CAT_ID":56060,"ELEMENT_SET_NO":999,"REV_AT_EPOCH":15282,"BSTAR":-0.00024918,"MEAN_MOTION_DOT":-9e-07,"MEAN_MOTION_DDOT":0.0},{"OBJECT_NAME":"ONEWEB-0566","OBJECT_ID":"2023-043R","EPOCH":"2026-05-06T20:50:17.407392","MEAN_MOTION":13.21824332,"ECCENTRICITY":0.0001722,"INCLINATION":87.9234,"RA_OF_ASC_NODE":252.1952,"ARG_OF_PERICENTER":91.2459,"MEAN_ANOMALY":268.8872,"EPHEMERIS_TYPE":0,"CLASSIFICATION_TYPE":"U","NORAD_CAT_ID":56061,"ELEMENT_SET_NO":999,"REV_AT_EPOCH":15277,"BSTAR":3.2404000000000003e-05,"MEAN_MOTION_DOT":2.6e-07,"MEAN_MOTION_DDOT":0.0},{"OBJECT_NAME":"ONEWEB-0568","OBJECT_ID":"2023-043S","EPOCH":"2026-05-07T06:38:14.934336","MEAN_MOTION":13.16596845,"ECCENTRICITY":0.0001978,"INCLINATION":87.9092,"RA_OF_ASC_NODE":236.8947,"ARG_OF_PERICENTER":110.6286,"MEAN_ANOMALY":249.5058,"EPHEMERIS_TYPE":0,"CLASSIFICATION_TYPE":"U","NORAD_CAT_ID":56062,"ELEMENT_SET_NO":999,"REV_AT_EPOCH":15359,"BSTAR":0.00049016,"MEAN_MOTION_DOT":2e-06,"MEAN_MOTION_DDOT":0.0},{"OBJECT_NAME":"ONEWEB-0574","OBJECT_ID":"2023-043T","EPOCH":"2026-05-07T02:07:36.959808","MEAN_MOTION":13.21827535,"ECCENTRICITY":0.0002112,"INCLINATION":87.9245,"RA_OF_ASC_NODE":252.1503,"ARG_OF_PERICENTER":102.7895,"MEAN_ANOMALY":257.3475,"EPHEMERIS_TYPE":0,"CLASSIFICATION_TYPE":"U","NORAD_CAT_ID":56063,"ELEMENT_SET_NO":999,"REV_AT_EPOCH":15284,"BSTAR":-5.679800000000001e-05,"MEAN_MOTION_DOT":-1e-07,"MEAN_MOTION_DDOT":0.0},{"OBJECT_NAME":"ONEWEB-0575","OBJECT_ID":"2023-043U","EPOCH":"2026-05-07T06:29:08.754144","MEAN_MOTION":13.16595345,"ECCENTRICITY":0.0002343,"INCLINATION":87.9094,"RA_OF_ASC_NODE":236.8926,"ARG_OF_PERICENTER":109.2064,"MEAN_ANOMALY":250.932,"EPHEMERIS_TYPE":0,"CLASSIFICATION_TYPE":"U","NORAD_CAT_ID":56064,"ELEMENT_SET_NO":999,"REV_AT_EPOCH":15358,"BSTAR":6.6414e-05,"MEAN_MOTION_DOT":3.8e-07,"MEAN_MOTION_DDOT":0.0}]